NORAD_CAT_ID,OBJECT_NAME,OBJECT_TYPE,EPOCH,MEAN_MOTION,ECCENTRICITY,INCLINATION,RA_OF_ASC_NODE,ARG_OF_PERICENTER,MEAN_ANOMALY,BSTAR,MEAN_MOTION_DOT,MEAN_MOTION_DDOT,TLE_LINE0,TLE_LINE1,TLE_LINE2,SEMIMAJOR_AXIS,PERIOD,APOGEE,PERIGEE,DECAYED
55935.0,STARLINK-5920,PAYLOAD,2023-05-31 14:10:26,15.69924485,0.0003284,69.997,330.704,269.8636,90.2183,1.4432e-05,1.523e-05,0.0,0 STARLINK-5920,1 55935U 23037X   23151.59058240  .00001523  00000-0  14432-4 0  9996,2 55935  69.9970 330.7040 0003284 269.8636  90.2183 15.69924485 11933,6737.25,91.724,361.328,356.903,0.0
55935.0,STARLINK-5920,PAYLOAD,2023-05-31 21:49:12,15.69922825,0.0002782,69.9968,329.8075,285.1269,74.9619,5.6471e-06,4.66e-06,0.0,0 STARLINK-5920,1 55935U 23037X   23151.90916964  .00000466  00000-0  56471-5 0  9992,2 55935  69.9968 329.8075 0002782 285.1269  74.9619 15.69922825 11986,6737.255,91.724,360.994,357.245,0.0
55935.0,STARLINK-5920,PAYLOAD,2023-06-01 05:27:57,15.69921822,0.000329,69.9964,328.9128,272.2381,87.8437,7.5746e-06,6.98e-06,0.0,0 STARLINK-5920,1 55935U 23037X   23152.22775132  .00000698  00000-0  75746-5 0  9991,2 55935  69.9964 328.9128 0003290 272.2381  87.8437 15.69921822 12032,6737.258,91.724,361.339,356.906,0.0
55935.0,STARLINK-5920,PAYLOAD,2023-06-02 13:34:45,15.69921043,0.0003327,69.9973,325.1495,266.0841,93.9975,4.9611e-06,3.84e-06,0.0,0 STARLINK-5920,1 55935U 23037X   23153.56580337  .00000384  00000-0  49611-5 0  9994,2 55935  69.9973 325.1495 0003327 266.0841  93.9975 15.69921043 12244,6737.26,91.724,361.366,356.883,0.0
55935.0,STARLINK-5920,PAYLOAD,2023-06-02 18:10:00,15.6993041,0.0004026,69.9979,324.6142,272.196,87.8774,1.6454e-05,1.766e-05,0.0,0 STARLINK-5920,1 55935U 23037X   23153.75694635  .00001766  00000-0  16454-4 0  9995,2 55935  69.9979 324.6142 0004026 272.1960  87.8774 15.69930410 12618,6737.233,91.724,361.811,356.386,0.0
55935.0,STARLINK-5920,PAYLOAD,2023-06-02 21:13:30,15.69930787,0.0003696,69.9992,324.2559,272.9816,87.0957,2.6256e-05,2.946e-05,0.0,0 STARLINK-5920,1 55935U 23037X   23153.88438000  .00002946  00000-0  26256-4 0  9993,2 55935  69.9992 324.2559 0003696 272.9816  87.0957 15.69930787 12297,6737.232,91.724,361.587,356.607,0.0
55935.0,STARLINK-5920,PAYLOAD,2023-06-03 10:59:16,15.69923926,0.0003627,69.9983,322.6422,275.0166,85.0615,5.8081e-06,4.86e-06,0.0,0 STARLINK-5920,1 55935U 23037X   23154.45783358  .00000486  00000-0  58081-5 0  9995,2 55935  69.9983 322.6422 0003627 275.0166  85.0615 15.69923926 12728,6737.252,91.724,361.56,356.673,0.0
55935.0,STARLINK-5920,PAYLOAD,2023-06-03 14:02:47,15.69925546,0.0003563,69.9988,322.2839,274.377,85.7019,1.0746e-05,1.08e-05,0.0,0 STARLINK-5920,1 55935U 23037X   23154.58526682  .00001080  00000-0  10746-4 0  9990,2 55935  69.9988 322.2839 0003563 274.3770  85.7019 15.69925546 12403,6737.247,91.724,361.512,356.712,0.0
55935.0,STARLINK-5920,PAYLOAD,2023-06-03 20:09:47,15.69931763,0.000343,69.9995,321.5673,274.611,85.4693,2.4499e-05,2.735e-05,0.0,0 STARLINK-5920,1 55935U 23037X   23154.84013059  .00002735  00000-0  24499-4 0  9996,2 55935  69.9995 321.5673 0003430 274.6110  85.4693 15.69931763 12440,6737.229,91.724,361.405,356.783,0.0
55935.0,STARLINK-5920,PAYLOAD,2023-06-04 14:30:49,15.69916946,0.0003845,69.9985,319.4173,273.6681,86.4075,-1.822e-05,-2.403e-05,0.0,0 STARLINK-5920,1 55935U 23037X   23155.60473728 -.00002403  00000-0 -18220-4 0  9993,2 55935  69.9985 319.4173 0003845 273.6681  86.4075 15.69916946 12566,6737.272,91.725,361.727,356.546,0.0
55935.0,STARLINK-5920,PAYLOAD,2023-06-04 19:06:04,15.69922483,0.0003924,69.9976,318.8777,272.9783,87.0964,-7.8623e-06,-1.158e-05,0.0,0 STARLINK-5920,1 55935U 23037X   23155.79588410 -.00001158  00000-0 -78623-5 0  9998,2 55935  69.9976 318.8777 0003924 272.9783  87.0964 15.69922483 12930,6737.256,91.724,361.764,356.477,0.0
55935.0,STARLINK-5920,PAYLOAD,2023-06-04 20:37:49,15.69926808,0.0004022,69.9983,318.6992,268.5498,91.5236,4.2595e-07,-1.62e-06,0.0,0 STARLINK-5920,1 55935U 23037X   23155.85959839 -.00000162  00000-0  42595-6 0  9995,2 55935  69.9983 318.6992 0004022 268.5498  91.5236 15.69926808 12600,6737.243,91.724,361.818,356.399,0.0
55935.0,STARLINK-5920,PAYLOAD,2023-06-05 13:27:05,15.6992705,0.0003668,69.9988,316.7294,272.0966,87.9809,1.6705e-05,1.796e-05,0.0,0 STARLINK-5920,1 55935U 23037X   23156.56048495  .00001796  00000-0  16705-4 0  9996,2 55935  69.9988 316.7294 0003668 272.0966  87.9809 15.69927050 12711,6737.243,91.724,361.579,356.636,0.0
55935.0,STARLINK-5920,PAYLOAD,2023-06-05 19:34:06,15.69928843,0.0003711,69.9994,316.0139,274.1864,85.8908,1.0117e-05,1.004e-05,0.0,0 STARLINK-5920,1 55935U 23037X   23156.81535153  .00001004  00000-0  10117-4 0  9999,2 55935  69.9994 316.0139 0003711 274.1864  85.8908 15.69928843 12750,6737.238,91.724,361.603,356.602,0.0
55935.0,STARLINK-5920,PAYLOAD,2023-06-06 13:55:04,15.69988622,0.0004074,69.9995,313.8641,267.8836,92.1893,-0.00021765,-0.00026376,0.0,0 STARLINK-5920,1 55935U 23037X   23157.57991708 -.00026376  00000-0 -21765-3 0  9996,2 55935  69.9995 313.8641 0004074 267.8836  92.1893 15.69988622 13212,6737.067,91.72,361.676,356.187,0.0
55935.0,STARLINK-5920,PAYLOAD,2023-06-06 20:02:08,15.69936178,0.0003798,70.0001,313.1478,272.6383,87.4378,5.2792e-05,6.143e-05,0.0,0 STARLINK-5920,1 55935U 23037X   23157.83481535  .00006143  00000-0  52792-4 0  9990,2 55935  70.0001 313.1478 0003798 272.6383  87.4378 15.69936178 12917,6737.217,91.723,361.64,356.523,0.0
55935.0,STARLINK-5920,PAYLOAD,2023-06-07 03:40:54,15.69910478,0.0003811,69.9993,312.2518,270.2734,89.8025,-7.465e-06,-1.11e-05,0.0,0 STARLINK-5920,1 55935U 23037X   23158.15341142 -.00001110  00000-0 -74650-5 0  9994,2 55935  69.9993 312.2518 0003811 270.2734  89.8025 15.69910478 13303,6737.29,91.725,361.723,356.588,0.0
55935.0,STARLINK-5920,PAYLOAD,2023-06-07 18:58:24,15.69937274,0.000393,69.9998,310.4602,268.8196,91.2549,4.3226e-05,4.991e-05,0.0,0 STARLINK-5920,1 55935U 23037X   23158.79056630  .00004991  00000-0  43226-4 0  9991,2 55935  69.9998 310.4602 0003930 268.8196  91.2549 15.69937274 13063,6737.213,91.723,361.726,356.431,0.0
55935.0,STARLINK-5920,PAYLOAD,2023-06-07 22:01:55,15.69927408,0.0003986,70.0001,310.1016,271.1304,88.9435,1.6776e-05,1.805e-05,0.0,0 STARLINK-5920,1 55935U 23037X   23158.91800320  .00001805  00000-0  16776-4 0  9999,2 55935  70.0001 310.1016 0003986 271.1304  88.9435 15.69927408 13421,6737.242,91.724,361.792,356.421,0.0
55935.0,STARLINK-5920,PAYLOAD,2023-06-08 11:47:41,15.69922655,0.0003614,69.9997,308.4888,266.1725,93.9058,-2.2711e-06,-4.86e-06,0.0,0 STARLINK-5920,1 55935U 23037X   23159.49145704 -.00000486  00000-0 -22711-5 0  9994,2 55935  69.9997 308.4888 0003614 266.1725  93.9058 15.69922655 13176,6737.255,91.724,361.555,356.685,0.0
55935.0,STARLINK-5920,PAYLOAD,2023-06-08 13:19:26,15.69924501,0.0003707,69.9997,308.3097,268.8449,91.2322,-5.7992e-06,-9.1e-06,0.0,0 STARLINK-5920,1 55935U 23037X   23159.55517281 -.00000910  00000-0 -57992-5 0  9995,2 55935  69.9997 308.3097 0003707 268.8449  91.2322 15.69924501 13528,6737.25,91.724,361.612,356.618,0.0
55935.0,STARLINK-5920,PAYLOAD,2023-06-08 19:26:26,15.69930516,0.0003816,69.9988,307.5926,271.0211,89.0547,5.0419e-06,3.93e-06,0.0,0 STARLINK-5920,1 55935U 23037X   23159.81003364  .00000393  00000-0  50419-5 0  9996,2 55935  69.9988 307.5926 0003816 271.0211  89.0547 15.69930516 13565,6737.233,91.724,361.669,356.527,0.0
55935.0,STARLINK-5920,PAYLOAD,2023-06-09 10:43:58,15.69929736,0.000378,69.9989,305.8016,272.8357,87.2406,-4.4776e-05,-5.595e-05,0.0,0 STARLINK-5920,1 55935U 23037X   23160.44720228 -.00005595  00000-0 -44776-4 0  9991,2 55935  69.9989 305.8016 0003780 272.8357  87.2406 15.69929736 13327,6737.235,91.724,361.647,356.553,0.0
55935.0,STARLINK-5920,PAYLOAD,2023-06-09 12:15:44,15.69924013,0.0003621,69.9975,305.6226,270.4111,89.667,5.6691e-06,4.69e-06,0.0,0 STARLINK-5920,1 55935U 23037X   23160.51092656  .00000469  00000-0  56691-5 0  9999,2 55935  69.9975 305.6226 0003621 270.4111  89.6670 15.69924013 13679,6737.251,91.724,361.556,356.677,0.0
55935.0,STARLINK-5920,PAYLOAD,2023-06-10 09:40:15,15.69922251,0.000361,69.9973,303.1139,271.0602,89.018,1.6243e-05,1.74e-05,0.0,0 STARLINK-5920,1 55935U 23037X   23161.40296055  .00001740  00000-0  16243-4 0  9998,2 55935  69.9973 303.1139 0003610 271.0602  89.0180 15.69922251 13473,6737.256,91.724,361.554,356.689,0.0
55935.0,STARLINK-5920,PAYLOAD,2023-06-10 12:43:46,15.69925826,0.0003524,69.9971,302.7561,265.41,94.6693,5.7557e-06,4.79e-06,0.0,0 STARLINK-5920,1 55935U 23037X   23161.53039382  .00000479  00000-0  57557-5 0  9992,2 55935  69.9971 302.7561 0003524 265.4100  94.6693 15.69925826 13831,6737.246,91.724,361.485,356.737,0.0
55935.0,STARLINK-5920,PAYLOAD,2023-06-11 02:29:32,15.69924076,0.000346,69.9969,301.1445,272.923,87.157,2.0198e-05,2.216e-05,0.0,0 STARLINK-5920,1 55935U 23037X   23162.10384406  .00002216  00000-0  20198-4 0  9997,2 55935  69.9969 301.1445 0003460 272.9230  87.1570 15.69924076 13587,6737.251,91.724,361.447,356.785,0.0
55935.0,STARLINK-5920,PAYLOAD,2023-06-11 20:50:33,15.6992741,0.0003509,69.9969,298.9943,274.0155,86.0639,7.9068e-06,7.38e-06,0.0,0 STARLINK-5920,1 55935U 23037X   23162.86844351  .00000738  00000-0  79068-5 0  9998,2 55935  69.9969 298.9943 0003509 274.0155  86.0639 15.69927410 13709,6737.242,91.724,361.471,356.743,0.0
55935.0,STARLINK-5920,PAYLOAD,2023-06-12 15:11:35,15.69920394,0.0003511,69.9966,296.8451,271.9454,88.134,6.4792e-06,5.66e-06,0.0,0 STARLINK-5920,1 55935U 23037X   23163.63304907  .00000566  00000-0  64792-5 0  9999,2 55935  69.9966 296.8451 0003511 271.9454  88.1340 15.69920394 14165,6737.262,91.724,361.492,356.761,0.0
55935.0,STARLINK-5920,PAYLOAD,2023-06-13 01:53:50,15.69927677,0.0003404,69.997,295.591,274.2417,85.839,1.5634e-05,1.668e-05,0.0,0 STARLINK-5920,1 55935U 23037X   23164.07906027  .00001668  00000-0  15634-4 0  9993,2 55935  69.9970 295.5910 0003404 274.2417  85.8390 15.69927677 14230,6737.241,91.724,361.399,356.813,0.0
